[{"OBJECT_NAME":"FENGYUN 3H","OBJECT_ID":"2025-219A","EPOCH":"2026-03-09T21:29:42.222912","MEAN_MOTION":14.19932737,"ECCENTRICITY":0.00012969,"INCLINATION":98.6685,"RA_OF_ASC_NODE":11.64,"ARG_OF_PERICENTER":61.8301,"MEAN_ANOMALY":298.3007,"EPHEMERIS_TYPE":0,"CLASSIFICATION_TYPE":"U","NORAD_CAT_ID":65815,"ELEMENT_SET_NO":999,"REV_AT_EPOCH":2329,"BSTAR":7.8784575e-5,"MEAN_MOTION_DOT":1.24e-6,"MEAN_MOTION_DDOT":0},{"OBJECT_NAME":"FENGYUN 1C DEB","OBJECT_ID":"1999-025BUP","EPOCH":"2026-03-05T22:18:57.053664","MEAN_MOTION":14.1375102,"ECCENTRICITY":0.00303499,"INCLINATION":98.7516,"RA_OF_ASC_NODE":110.2926,"ARG_OF_PERICENTER":337.9092,"MEAN_ANOMALY":146.4088,"EPHEMERIS_TYPE":0,"CLASSIFICATION_TYPE":"U","NORAD_CAT_ID":31451,"ELEMENT_SET_NO":999,"REV_AT_EPOCH":97185,"BSTAR":0.00037139607,"MEAN_MOTION_DOT":6.62e-6,"MEAN_MOTION_DDOT":0}]
